{
  "type": "FeatureCollection",
  "features": [
    {
      "type": "Feature",
      "properties": {
        "norad_id": 66808,
        "name": "STARLINK-36071",
        "group": "last-30-days",
        "lat": 42.79721487136657,
        "lon": -97.7480286729037,
        "alt_km": 409.33758107561243,
        "timestamp": "2025-12-27T03:58:42.932170+00:00",
        "meta_object_name": "STARLINK-36071",
        "meta_object_id": "2025-278T",
        "meta_epoch": "2025-12-26T20:00:01.999008",
        "meta_mean_motion": 15.50577272,
        "meta_eccentricity": 0.0001513,
        "meta_inclination": 43.0001,
        "meta_ra_of_asc_node": 167.7286,
        "meta_arg_of_pericenter": 265.3958,
        "meta_mean_anomaly": 131.5488,
        "meta_ephemeris_type": 0,
        "meta_classification_type": "U",
        "meta_norad_cat_id": 66808,
        "meta_element_set_no": 999,
        "meta_rev_at_epoch": 522,
        "meta_bstar": -0.00068265,
        "meta_mean_motion_dot": -0.00040182,
        "meta_mean_motion_ddot": 0,
        "tle_line1": "1 66808U 25278T   25360.83335647 -.00040182  00000+0 -68265-3 0  9993",
        "tle_line2": "2 66808  43.0001 167.7286 0001513 265.3958 131.5488 15.50577272  5223"
      },
      "geometry": {
        "type": "Point",
        "coordinates": [
          -97.7480286729037,
          42.79721487136657
        ]
      }
    },
    {
      "type": "Feature",
      "properties": {
        "norad_id": 66809,
        "name": "STARLINK-35979",
        "group": "last-30-days",
        "lat": 42.09231901656943,
        "lon": -90.01856593520729,
        "alt_km": 409.52355445436933,
        "timestamp": "2025-12-27T03:58:42.932179+00:00",
        "meta_object_name": "STARLINK-35979",
        "meta_object_id": "2025-278U",
        "meta_epoch": "2025-12-26T20:00:01.999008",
        "meta_mean_motion": 15.50573101,
        "meta_eccentricity": 0.0001649,
        "meta_inclination": 43.0001,
        "meta_ra_of_asc_node": 167.7129,
        "meta_arg_of_pericenter": 269.2191,
        "meta_mean_anomaly": 133.4759,
        "meta_ephemeris_type": 0,
        "meta_classification_type": "U",
        "meta_norad_cat_id": 66809,
        "meta_element_set_no": 999,
        "meta_rev_at_epoch": 522,
        "meta_bstar": -0.00050864,
        "meta_mean_motion_dot": -0.0003006,
        "meta_mean_motion_ddot": 0,
        "tle_line1": "1 66809U 25278U   25360.83335647 -.00030060  00000+0 -50864-3 0  9994",
        "tle_line2": "2 66809  43.0001 167.7129 0001649 269.2191 133.4759 15.50573101  5221"
      },
      "geometry": {
        "type": "Point",
        "coordinates": [
          -90.01856593520729,
          42.09231901656943
        ]
      }
    },
    {
      "type": "Feature",
      "properties": {
        "norad_id": 66810,
        "name": "STARLINK-36046",
        "group": "last-30-days",
        "lat": 42.62035493128277,
        "lon": -95.15310785693677,
        "alt_km": 409.3246052020786,
        "timestamp": "2025-12-27T03:58:42.932190+00:00",
        "meta_object_name": "STARLINK-36046",
        "meta_object_id": "2025-278V",
        "meta_epoch": "2025-12-26T20:00:01.999008",
        "meta_mean_motion": 15.50575772,
        "meta_eccentricity": 0.0001448,
        "meta_inclination": 43,
        "meta_ra_of_asc_node": 167.7241,
        "meta_arg_of_pericenter": 268.6696,
        "meta_mean_anomaly": 130.1912,
        "meta_ephemeris_type": 0,
        "meta_classification_type": "U",
        "meta_norad_cat_id": 66810,
        "meta_element_set_no": 999,
        "meta_rev_at_epoch": 499,
        "meta_bstar": -0.00065611,
        "meta_mean_motion_dot": -0.00038638,
        "meta_mean_motion_ddot": 0,
        "tle_line1": "1 66810U 25278V   25360.83335647 -.00038638  00000+0 -65611-3 0  9991",
        "tle_line2": "2 66810  43.0000 167.7241 0001448 268.6696 130.1912 15.50575772  4991"
      },
      "geometry": {
        "type": "Point",
        "coordinates": [
          -95.15310785693677,
          42.62035493128277
        ]
      }
    },
    {
      "type": "Feature",
      "properties": {
        "norad_id": 66811,
        "name": "STARLINK-36045",
        "group": "last-30-days",
        "lat": 42.38499574433331,
        "lon": -92.57323782680902,
        "alt_km": 409.3539738960626,
        "timestamp": "2025-12-27T03:58:42.932200+00:00",
        "meta_object_name": "STARLINK-36045",
        "meta_object_id": "2025-278W",
        "meta_epoch": "2025-12-26T20:00:01.999008",
        "meta_mean_motion": 15.50578313,
        "meta_eccentricity": 0.0001441,
        "meta_inclination": 43.0001,
        "meta_ra_of_asc_node": 167.7187,
        "meta_arg_of_pericenter": 269.9957,
        "meta_mean_anomaly": 130.7813,
        "meta_ephemeris_type": 0,
        "meta_classification_type": "U",
        "meta_norad_cat_id": 66811,
        "meta_element_set_no": 999,
        "meta_rev_at_epoch": 522,
        "meta_bstar": -0.00071376,
        "meta_mean_motion_dot": -0.00041989,
        "meta_mean_motion_ddot": 0,
        "tle_line1": "1 66811U 25278W   25360.83335647 -.00041989  00000+0 -71376-3 0  9990",
        "tle_line2": "2 66811  43.0001 167.7187 0001441 269.9957 130.7813 15.50578313  5226"
      },
      "geometry": {
        "type": "Point",
        "coordinates": [
          -92.57323782680902,
          42.38499574433331
        ]
      }
    },
    {
      "type": "Feature",
      "properties": {
        "norad_id": 66812,
        "name": "STARLINK-36054",
        "group": "last-30-days",
        "lat": 41.74215397666841,
        "lon": -87.47992926387077,
        "alt_km": 409.4955663077553,
        "timestamp": "2025-12-27T03:58:42.932209+00:00",
        "meta_object_name": "STARLINK-36054",
        "meta_object_id": "2025-278X",
        "meta_epoch": "2025-12-26T20:00:01.999008",
        "meta_mean_motion": 15.50581197,
        "meta_eccentricity": 0.0001504,
        "meta_inclination": 43.0001,
        "meta_ra_of_asc_node": 167.7093,
        "meta_arg_of_pericenter": 275.4783,
        "meta_mean_anomaly": 129.1326,
        "meta_ephemeris_type": 0,
        "meta_classification_type": "U",
        "meta_norad_cat_id": 66812,
        "meta_element_set_no": 999,
        "meta_rev_at_epoch": 522,
        "meta_bstar": -0.00076718,
        "meta_mean_motion_dot": -0.00045093,
        "meta_mean_motion_ddot": 0,
        "tle_line1": "1 66812U 25278X   25360.83335647 -.00045093  00000+0 -76718-3 0  9996",
        "tle_line2": "2 66812  43.0001 167.7093 0001504 275.4783 129.1326 15.50581197  5227"
      },
      "geometry": {
        "type": "Point",
        "coordinates": [
          -87.47992926387077,
          41.74215397666841
        ]
      }
    },
    {
      "type": "Feature",
      "properties": {
        "norad_id": 66813,
        "name": "STARLINK-36042",
        "group": "last-30-days",
        "lat": 41.337914937853135,
        "lon": -84.98064074579041,
        "alt_km": 409.4954548500009,
        "timestamp": "2025-12-27T03:58:42.932219+00:00",
        "meta_object_name": "STARLINK-36042",
        "meta_object_id": "2025-278Y",
        "meta_epoch": "2025-12-26T20:00:01.999008",
        "meta_mean_motion": 15.50581595,
        "meta_eccentricity": 0.0001484,
        "meta_inclination": 43.0001,
        "meta_ra_of_asc_node": 167.7037,
        "meta_arg_of_pericenter": 262.0934,
        "meta_mean_anomaly": 144.4388,
        "meta_ephemeris_type": 0,
        "meta_classification_type": "U",
        "meta_norad_cat_id": 66813,
        "meta_element_set_no": 999,
        "meta_rev_at_epoch": 522,
        "meta_bstar": -0.00085547,
        "meta_mean_motion_dot": -0.00050212,
        "meta_mean_motion_ddot": 0,
        "tle_line1": "1 66813U 25278Y   25360.83335647 -.00050212  00000+0 -85547-3 0  9996",
        "tle_line2": "2 66813  43.0001 167.7037 0001484 262.0934 144.4388 15.50581595  5223"
      },
      "geometry": {
        "type": "Point",
        "coordinates": [
          -84.98064074579041,
          41.337914937853135
        ]
      }
    },
    {
      "type": "Feature",
      "properties": {
        "norad_id": 66814,
        "name": "STARLINK-35984",
        "group": "last-30-days",
        "lat": 40.36486811772241,
        "lon": -80.0584491895009,
        "alt_km": 422.64936145639786,
        "timestamp": "2025-12-27T03:58:42.932228+00:00",
        "meta_object_name": "STARLINK-35984",
        "meta_object_id": "2025-278Z",
        "meta_epoch": "2025-12-26T20:00:01.999008",
        "meta_mean_motion": 15.47703429,
        "meta_eccentricity": 0.0001636,
        "meta_inclination": 43.0001,
        "meta_ra_of_asc_node": 167.6828,
        "meta_arg_of_pericenter": 276.8896,
        "meta_mean_anomaly": 137.8389,
        "meta_ephemeris_type": 0,
        "meta_classification_type": "U",
        "meta_norad_cat_id": 66814,
        "meta_element_set_no": 999,
        "meta_rev_at_epoch": 531,
        "meta_bstar": -0.044097,
        "meta_mean_motion_dot": -0.02076892,
        "meta_mean_motion_ddot": 0,
        "tle_line1": "1 66814U 25278Z   25360.83335647 -.02076892  00000+0 -44097-1 0  9994",
        "tle_line2": "2 66814  43.0001 167.6828 0001636 276.8896 137.8389 15.47703429  5315"
      },
      "geometry": {
        "type": "Point",
        "coordinates": [
          -80.0584491895009,
          40.36486811772241
        ]
      }
    }
  ]
}